start=new Date('2023-01-26T00:00:00.000Z').valueOf();
sats=[{"OBJECT_NAME":"STARLINK-1262","RA_OF_ASC_NODE":"239.0834","CENTER_NAME":"EARTH","REF_FRAME":"TEME","RCS_SIZE":"LARGE","NORAD_CAT_ID":"45366","INCLINATION":"53.0523","TLE_LINE1":"1 45366U 20019G   23025.84739261  .00000915  00000-0  80289-4 0  9994","REV_AT_EPOCH":"15808","TLE_LINE2":"2 45366  53.0523 239.0834 0001053  91.0582 269.0528 15.06397700158089","MEAN_MOTION_DOT":"0.00000915","BSTAR":"0.00008028900000","SEMIMAJOR_AXIS":"6925.356","MEAN_ANOMALY":"269.0528","ELEMENT_SET_NO":"999","LAUNCH_DATE":"2020-03-18","SITE":"AFETR","FILE":"3761360","APOAPSIS":"547.950","COUNTRY_CODE":"US","TIME_SYSTEM":"UTC","GP_ID":"223713295","ARG_OF_PERICENTER":"91.0582","OBJECT_TYPE":"PAYLOAD","ECCENTRICITY":"0.00010530","OBJECT_ID":"2020-019G","MEAN_ELEMENT_THEORY":"SGP4","PERIAPSIS":"546.491","CLASSIFICATION_TYPE":"U","DECAY_DATE":null,"EPOCH":"2023-01-25T20:20:14.721504","EPHEMERIS_TYPE":"0","PERIOD":"95.592","MEAN_MOTION":"15.06397700","MEAN_MOTION_DDOT":"0.0000000000000"},{"MEAN_MOTION":"15.06396497","MEAN_MOTION_DDOT":"0.0000000000000","PERIOD":"95.592","EPHEMERIS_TYPE":"0","EPOCH":"2023-01-25T19:16:33.151872","DECAY_DATE":null,"CLASSIFICATION_TYPE":"U","PERIAPSIS":"546.418","MEAN_ELEMENT_THEORY":"SGP4","ECCENTRICITY":"0.00011640","OBJECT_ID":"2020-019H","OBJECT_TYPE":"PAYLOAD","GP_ID":"223714046","ARG_OF_PERICENTER":"113.0223","TIME_SYSTEM":"UTC","COUNTRY_CODE":"US","APOAPSIS":"548.030","FILE":"3761360","SITE":"AFETR","LAUNCH_DATE":"2020-03-18","ELEMENT_SET_NO":"999","MEAN_ANOMALY":"247.0889","SEMIMAJOR_AXIS":"6925.359","BSTAR":"0.00008260700000","MEAN_MOTION_DOT":"0.00000949","TLE_LINE2":"2 45367  53.0533 239.2777 0001164 113.0223 247.0889 15.06396497158076","REV_AT_EPOCH":"15807","TLE_LINE1":"1 45367U 20019H   23025.80316148  .00000949  00000-0  82607-4 0  9999","INCLINATION":"53.0533","NORAD_CAT_ID":"45367","RCS_SIZE":"LARGE","REF_FRAME":"TEME","CENTER_NAME":"EARTH","RA_OF_ASC_NODE":"239.2777","OBJECT_NAME":"STARLINK-1273"},{"TLE_LINE1":"1 45368U 20019J   23025.84001829  .00002541  00000-0  18941-3 0  9990","REV_AT_EPOCH":"15808","TLE_LINE2":"2 45368  53.0495 239.1239 0001005  82.6540 277.4563 15.06396949158082","MEAN_MOTION_DOT":"0.00002541","BSTAR":"0.00018941000000","OBJECT_NAME":"STARLINK-1276","RA_OF_ASC_NODE":"239.1239","CENTER_NAME":"EARTH","REF_FRAME":"TEME","RCS_SIZE":"LARGE","NORAD_CAT_ID":"45368","INCLINATION":"53.0495","MEAN_ELEMENT_THEORY":"SGP4","PERIAPSIS":"546.527","CLASSIFICATION_TYPE":"U","DECAY_DATE":null,"EPOCH":"2023-01-25T20:09:37.580256","EPHEMERIS_TYPE":"0","PERIOD":"95.592","MEAN_MOTION_DDOT":"0.0000000000000","MEAN_MOTION":"15.06396949","SEMIMAJOR_AXIS":"6925.358","MEAN_ANOMALY":"277.4563","LAUNCH_DATE":"2020-03-18","ELEMENT_SET_NO":"999","SITE":"AFETR","FILE":"3761360","APOAPSIS":"547.919","COUNTRY_CODE":"US","TIME_SYSTEM":"UTC","ARG_OF_PERICENTER":"82.6540","GP_ID":"223714796","OBJECT_TYPE":"PAYLOAD","OBJECT_ID":"2020-019J","ECCENTRICITY":"0.00010050"},{"INCLINATION":"53.0526","RCS_SIZE":"LARGE","REF_FRAME":"TEME","NORAD_CAT_ID":"45369","RA_OF_ASC_NODE":"239.1186","CENTER_NAME":"EARTH","OBJECT_NAME":"STARLINK-1277","MEAN_MOTION_DOT":"0.00001362","TLE_LINE2":"2 45369  53.0526 239.1186 0001323  84.3967 275.7173 15.06392574158082","BSTAR":"0.00011033000000","REV_AT_EPOCH":"15808","TLE_LINE1":"1 45369U 20019K   23025.83908015  .00001362  00000-0  11033-3 0  9998","GP_ID":"223713046","ARG_OF_PERICENTER":"84.3967","TIME_SYSTEM":"UTC","OBJECT_ID":"2020-019K","ECCENTRICITY":"0.00013230","OBJECT_TYPE":"PAYLOAD","APOAPSIS":"548.153","FILE":"3761360","COUNTRY_CODE":"US","SITE":"AFETR","SEMIMAJOR_AXIS":"6925.371","ELEMENT_SET_NO":"999","LAUNCH_DATE":"2020-03-18","MEAN_ANOMALY":"275.7173","MEAN_MOTION":"15.06392574","MEAN_MOTION_DDOT":"0.0000000000000","PERIOD":"95.593","EPOCH":"2023-01-25T20:08:16.524960","DECAY_DATE":null,"EPHEMERIS_TYPE":"0","PERIAPSIS":"546.320","MEAN_ELEMENT_THEORY":"SGP4","CLASSIFICATION_TYPE":"U"},{"PERIAPSIS":"546.344","MEAN_ELEMENT_THEORY":"SGP4","CLASSIFICATION_TYPE":"U","DECAY_DATE":null,"EPOCH":"2023-01-25T19:53:42.576000","EPHEMERIS_TYPE":"0","PERIOD":"95.592","MEAN_MOTION_DDOT":"0.0000000000000","MEAN_MOTION":"15.06395603","SEMIMAJOR_AXIS":"6925.362","MEAN_ANOMALY":"273.1196","LAUNCH_DATE":"2020-03-18","ELEMENT_SET_NO":"999","SITE":"AFETR","FILE":"3761360","APOAPSIS":"548.110","COUNTRY_CODE":"US","TIME_SYSTEM":"UTC","GP_ID":"223713794","ARG_OF_PERICENTER":"86.9938","OBJECT_TYPE":"PAYLOAD","OBJECT_ID":"2020-019L","ECCENTRICITY":"0.00012750","TLE_LINE1":"1 45370U 20019L   23025.82896500  .00000546  00000-0  55549-4 0  9998","REV_AT_EPOCH":"15808","TLE_LINE2":"2 45370  53.0513 239.1707 0001275  86.9938 273.1196 15.06395603158084","MEAN_MOTION_DOT":"0.00000546","BSTAR":"0.00005554900000","OBJECT_NAME":"STARLINK-1281","RA_OF_ASC_NODE":"239.1707","CENTER_NAME":"EARTH","REF_FRAME":"TEME","RCS_SIZE":"LARGE","NORAD_CAT_ID":"45370","INCLINATION":"53.0513"},{"INCLINATION":"53.0518","NORAD_CAT_ID":"45371","REF_FRAME":"TEME","RCS_SIZE":"LARGE","CENTER_NAME":"EARTH","RA_OF_ASC_NODE":"239.0299","OBJECT_NAME":"STARLINK-1287","BSTAR":"0.00005955300000","TLE_LINE2":"2 45371  53.0518 239.0299 0001132  78.4504 281.6612 15.06393652158081","MEAN_MOTION_DOT":"0.00000606","REV_AT_EPOCH":"15808","TLE_LINE1":"1 45371U 20019M   23025.85751148  .00000606  00000-0  59553-4 0  9996","OBJECT_TYPE":"PAYLOAD","OBJECT_ID":"2020-019M","ECCENTRICITY":"0.00011320","TIME_SYSTEM":"UTC","ARG_OF_PERICENTER":"78.4504","GP_ID":"223714546","COUNTRY_CODE":"US","FILE":"3761360","APOAPSIS":"548.017","SITE":"AFETR","MEAN_ANOMALY":"281.6612","LAUNCH_DATE":"2020-03-18","ELEMENT_SET_NO":"999","SEMIMAJOR_AXIS":"6925.368","MEAN_MOTION_DDOT":"0.0000000000000","MEAN_MOTION":"15.06393652","PERIOD":"95.593","EPHEMERIS_TYPE":"0","DECAY_DATE":null,"EPOCH":"2023-01-25T20:34:48.991872","CLASSIFICATION_TYPE":"U","MEAN_ELEMENT_THEORY":"SGP4","PERIAPSIS":"546.449"},{"CLASSIFICATION_TYPE":"U","PERIAPSIS":"546.548","MEAN_ELEMENT_THEORY":"SGP4","EPHEMERIS_TYPE":"0","EPOCH":"2023-01-25T19:21:51.501312","DECAY_DATE":null,"PERIOD":"95.592","MEAN_MOTION":"15.06400162","MEAN_MOTION_DDOT":"0.0000000000000","ELEMENT_SET_NO":"999","LAUNCH_DATE":"2020-03-18","MEAN_ANOMALY":"253.5928","SEMIMAJOR_AXIS":"6925.348","SITE":"AFETR","COUNTRY_CODE":"US","APOAPSIS":"547.879","FILE":"3761360","ECCENTRICITY":"0.00009610","OBJECT_ID":"2020-019N","OBJECT_TYPE":"PAYLOAD","GP_ID":"223714297","ARG_OF_PERICENTER":"106.5166","TIME_SYSTEM":"UTC","TLE_LINE1":"1 45372U 20019N   23025.80684608  .00001341  00000-0  10886-3 0  9990","REV_AT_EPOCH":"15807","BSTAR":"0.00010886000000","MEAN_MOTION_DOT":"0.00001341","TLE_LINE2":"2 45372  53.0532 239.2565 0000961 106.5166 253.5928 15.06400162158074","OBJECT_NAME":"STARLINK-1288","CENTER_NAME":"EARTH","RA_OF_ASC_NODE":"239.2565","NORAD_CAT_ID":"45372","RCS_SIZE":"LARGE","REF_FRAME":"TEME","INCLINATION":"53.0532"},{"OBJECT_TYPE":"PAYLOAD","ECCENTRICITY":"0.00012040","OBJECT_ID":"2020-019P","TIME_SYSTEM":"UTC","GP_ID":"223713546","ARG_OF_PERICENTER":"87.2472","COUNTRY_CODE":"US","FILE":"3761360","APOAPSIS":"548.047","SITE":"AFETR","MEAN_ANOMALY":"272.8655","ELEMENT_SET_NO":"999","LAUNCH_DATE":"2020-03-18","SEMIMAJOR_AXIS":"6925.348","MEAN_MOTION":"15.06400235","MEAN_MOTION_DDOT":"0.0000000000000","PERIOD":"95.592","EPHEMERIS_TYPE":"0","DECAY_DATE":null,"EPOCH":"2023-01-25T20:30:51.763392","CLASSIFICATION_TYPE":"U","MEAN_ELEMENT_THEORY":"SGP4","PERIAPSIS":"546.379","INCLINATION":"53.0529","NORAD_CAT_ID":"45373","REF_FRAME":"TEME","RCS_SIZE":"LARGE","CENTER_NAME":"EARTH","RA_OF_ASC_NODE":"239.0490","OBJECT_NAME":"STARLINK-1295","BSTAR":"0.00012101000000","TLE_LINE2":"2 45373  53.0529 239.0490 0001204  87.2472 272.8655 15.06400235158085","MEAN_MOTION_DOT":"0.00001522","REV_AT_EPOCH":"15808","TLE_LINE1":"1 45373U 20019P   23025.85476578  .00001522  00000-0  12101-3 0  9994"},{"MEAN_ELEMENT_THEORY":"SGP4","PERIAPSIS":"546.337","CLASSIFICATION_TYPE":"U","DECAY_DATE":null,"EPOCH":"2023-01-25T20:25:33.693024","EPHEMERIS_TYPE":"0","PERIOD":"95.592","MEAN_MOTION":"15.06395595","MEAN_MOTION_DDOT":"0.0000000000000","SEMIMAJOR_AXIS":"6925.362","MEAN_ANOMALY":"271.0055","LAUNCH_DATE":"2020-03-18","ELEMENT_SET_NO":"999","SITE":"AFETR","FILE":"3761360","APOAPSIS":"548.117","COUNTRY_CODE":"US","TIME_SYSTEM":"UTC","GP_ID":"223713296","ARG_OF_PERICENTER":"89.1081","OBJECT_TYPE":"PAYLOAD","OBJECT_ID":"2020-019Q","ECCENTRICITY":"0.00012850","TLE_LINE1":"1 45374U 20019Q   23025.85108441  .00001004  00000-0  86281-4 0  9992","REV_AT_EPOCH":"15808","TLE_LINE2":"2 45374  53.0538 239.0667 0001285  89.1081 271.0055 15.06395595158085","MEAN_MOTION_DOT":"0.00001004","BSTAR":"0.00008628100000","OBJECT_NAME":"STARLINK-1300","RA_OF_ASC_NODE":"239.0667","CENTER_NAME":"EARTH","REF_FRAME":"TEME","RCS_SIZE":"LARGE","NORAD_CAT_ID":"45374","INCLINATION":"53.0538"},{"MEAN_ANOMALY":"289.8025","LAUNCH_DATE":"2020-03-18","ELEMENT_SET_NO":"999","SEMIMAJOR_AXIS":"6925.046","SITE":"AFETR","COUNTRY_CODE":"US","FILE":"3761360","APOAPSIS":"548.038","OBJECT_TYPE":"PAYLOAD","OBJECT_ID":"2020-019R","ECCENTRICITY":"0.00016280","TIME_SYSTEM":"UTC","ARG_OF_PERICENTER":"70.3139","GP_ID":"223714047","CLASSIFICATION_TYPE":"U","PERIAPSIS":"545.783","MEAN_ELEMENT_THEORY":"SGP4","EPHEMERIS_TYPE":"0","DECAY_DATE":null,"EPOCH":"2023-01-25T19:11:11.797440","PERIOD":"95.586","MEAN_MOTION_DDOT":"0.0000000000000","MEAN_MOTION":"15.06498855","OBJECT_NAME":"STARLINK-1302","CENTER_NAME":"EARTH","RA_OF_ASC_NODE":"239.2915","NORAD_CAT_ID":"45375","REF_FRAME":"TEME","RCS_SIZE":"LARGE","INCLINATION":"53.0548","TLE_LINE1":"1 45375U 20019R   23025.79944210 -.00025409  00000-0 -16884-2 0  9995","REV_AT_EPOCH":"15807","BSTAR":"-0.00168840000000","TLE_LINE2":"2 45375  53.0548 239.2915 0001628  70.3139 289.8025 15.06498855158078","MEAN_MOTION_DOT":"-0.00025409"}];
